{
  "generatedAtUtc": "2026-03-17T12:19:50.754Z",
  "provider": "starlink",
  "sourceRootHint": "../tle_data",
  "sourceFile": "starlink/json/starlink_20260316.json",
  "sourceRecordCount": 9839,
  "sampledRecordCount": 1846,
  "replayWindowStartUtc": "2026-03-16T22:02:38.406Z",
  "replayWindowDurationSec": 18000,
  "bootstrapStartOffsetSec": 900,
  "observer": {
    "latDeg": 24.9441667,
    "lonDeg": 121.3713889,
    "altKm": 0.05
  },
  "selectionPolicy": {
    "mode": "observer-local-pass",
    "serviceMinElevationDeg": 25,
    "analysisWindowSec": 18000,
    "rankingPolicyId": "per-pass-diversity-peak-elevation",
    "raanBinDeg": 1,
    "samePassThresholdSec": 600
  },
  "replayModeSupport": {
    "researchDefault": true,
    "demoLoopSupported": true
  },
  "records": [
    {
      "objectName": "STARLINK-36865",
      "objectId": "2026-036AC",
      "noradId": 67930,
      "epochUtc": "2026-03-16T20:00:01.999008Z",
      "meanMotionRevPerDay": 15.6166347,
      "eccentricity": 0.0001235,
      "inclinationDeg": 43,
      "raanDeg": 206.1837,
      "argPerigeeDeg": 281.2265,
      "meanAnomalyDeg": 304.9188,
      "bstar": -0.023468,
      "meanMotionDot": -0.01845494,
      "meanMotionDdot": 0,
      "elementSetNo": 999,
      "revAtEpoch": 479
    },
    {
      "objectName": "STARLINK-36370",
      "objectId": "2026-037F",
      "noradId": 67937,
      "epochUtc": "2026-03-15T22:51:50.383872Z",
      "meanMotionRevPerDay": 15.81324946,
      "eccentricity": 0.00007089,
      "inclinationDeg": 42.9981,
      "raanDeg": 160.1562,
      "argPerigeeDeg": 273.808,
      "meanAnomalyDeg": 86.271,
      "bstar": 0.002395493,
      "meanMotionDot": 0.00518449,
      "meanMotionDdot": 0,
      "elementSetNo": 999,
      "revAtEpoch": 424
    },
    {
      "objectName": "STARLINK-36920",
      "objectId": "2026-037R",
      "noradId": 67947,
      "epochUtc": "2026-03-16T06:14:09.096864Z",
      "meanMotionRevPerDay": 15.82114717,
      "eccentricity": 0.00034527,
      "inclinationDeg": 42.9982,
      "raanDeg": 158.1513,
      "argPerigeeDeg": 338.1333,
      "meanAnomalyDeg": 21.939,
      "bstar": 0.0021242401,
      "meanMotionDot": 0.0047435,
      "meanMotionDdot": 0,
      "elementSetNo": 999,
      "revAtEpoch": 429
    },
    {
      "objectName": "STARLINK-36841",
      "objectId": "2026-037AE",
      "noradId": 67960,
      "epochUtc": "2026-03-15T22:26:39.737760Z",
      "meanMotionRevPerDay": 15.82179874,
      "eccentricity": 0.00025366,
      "inclinationDeg": 42.9985,
      "raanDeg": 160.0104,
      "argPerigeeDeg": 26.2253,
      "meanAnomalyDeg": 333.8747,
      "bstar": 0.0023061706,
      "meanMotionDot": 0.00519298,
      "meanMotionDdot": 0,
      "elementSetNo": 999,
      "revAtEpoch": 424
    },
    {
      "objectName": "STARLINK-36357",
      "objectId": "2026-038C",
      "noradId": 67963,
      "epochUtc": "2026-03-16T20:00:01.999008Z",
      "meanMotionRevPerDay": 15.72061725,
      "eccentricity": 0.0001746,
      "inclinationDeg": 97.285,
      "raanDeg": 86.4978,
      "argPerigeeDeg": 89.6573,
      "meanAnomalyDeg": 198.0081,
      "bstar": -0.020221,
      "meanMotionDot": -0.02287406,
      "meanMotionDdot": 0,
      "elementSetNo": 999,
      "revAtEpoch": 434
    },
    {
      "objectName": "STARLINK-36819",
      "objectId": "2026-038G",
      "noradId": 67967,
      "epochUtc": "2026-03-16T20:00:01.999008Z",
      "meanMotionRevPerDay": 15.57890367,
      "eccentricity": 0.0002043,
      "inclinationDeg": 97.284,
      "raanDeg": 86.4672,
      "argPerigeeDeg": 84.6576,
      "meanAnomalyDeg": 118.7334,
      "bstar": -0.033935,
      "meanMotionDot": -0.02235397,
      "meanMotionDdot": 0,
      "elementSetNo": 999,
      "revAtEpoch": 434
    },
    {
      "objectName": "STARLINK-36894",
      "objectId": "2026-038M",
      "noradId": 67972,
      "epochUtc": "2026-03-16T20:00:01.999008Z",
      "meanMotionRevPerDay": 15.75214434,
      "eccentricity": 0.0001381,
      "inclinationDeg": 97.2871,
      "raanDeg": 86.5176,
      "argPerigeeDeg": 57.5645,
      "meanAnomalyDeg": 287.5396,
      "bstar": -0.00029874,
      "meanMotionDot": -0.00044505,
      "meanMotionDdot": 0,
      "elementSetNo": 999,
      "revAtEpoch": 434
    },
    {
      "objectName": "STARLINK-36900",
      "objectId": "2026-038N",
      "noradId": 67973,
      "epochUtc": "2026-03-16T20:00:01.999008Z",
      "meanMotionRevPerDay": 15.62802298,
      "eccentricity": 0.0001635,
      "inclinationDeg": 97.284,
      "raanDeg": 86.5046,
      "argPerigeeDeg": 96.8595,
      "meanAnomalyDeg": 205.8216,
      "bstar": -0.029263,
      "meanMotionDot": -0.02317208,
      "meanMotionDdot": 0,
      "elementSetNo": 999,
      "revAtEpoch": 434
    },
    {
      "objectName": "STARLINK-36867",
      "objectId": "2026-038Y",
      "noradId": 67983,
      "epochUtc": "2026-03-16T20:00:01.999008Z",
      "meanMotionRevPerDay": 15.64245568,
      "eccentricity": 0.0001452,
      "inclinationDeg": 97.2837,
      "raanDeg": 86.5327,
      "argPerigeeDeg": 76.6359,
      "meanAnomalyDeg": 313.9817,
      "bstar": -0.027691,
      "meanMotionDot": -0.02320657,
      "meanMotionDdot": 0,
      "elementSetNo": 999,
      "revAtEpoch": 434
    },
    {
      "objectName": "STARLINK-36802",
      "objectId": "2026-038AA",
      "noradId": 67985,
      "epochUtc": "2026-03-16T20:00:01.999008Z",
      "meanMotionRevPerDay": 15.7518424,
      "eccentricity": 0.0001662,
      "inclinationDeg": 97.2881,
      "raanDeg": 86.5499,
      "argPerigeeDeg": 98.1571,
      "meanAnomalyDeg": 340.9577,
      "bstar": -0.000098387,
      "meanMotionDot": -0.00014776,
      "meanMotionDdot": 0,
      "elementSetNo": 999,
      "revAtEpoch": 434
    }
  ]
}
